{
  "type": "FeatureCollection",
  "features": [
    {
      "type": "Feature",
      "properties": {
        "name": "Demo 10 Hectare Farm",
        "area_m2": 100000
      },
      "geometry": {
        "type": "Polygon",
        "coordinates": [
          [
            [
              30.5,
              50.45
            ],
            [
              30.50105,
              50.44995
            ],
            [
              30.5023,
              50.45018
            ],
            [
              30.50315,
              50.4507
            ],
            [
              30.5035,
              50.45155
            ],
            [
              30.5032,
              50.45265
            ],
            [
              30.5022,
              50.4532
            ],
            [
              30.50095,
              50.45305
            ],
            [
              30.50005,
              50.45235
            ],
            [
              30.49985,
              50.4513
            ],
            [
              30.5,
              50.45
            ]
          ]
        ]
      }
    }
  ]
}